start=new Date('2022-04-28T00:00:00.000Z').valueOf();
sats=[{"EPHEMERIS_TYPE":"0","TLE_LINE1":"1 52105U 22029T   22117.58335648 -.00719777  00000-0 -56364-2 0  9999","GP_ID":"202161054","ECCENTRICITY":"0.00012590","RCS_SIZE":"LARGE","BSTAR":"-0.00563640000000","FILE":"3418497","MEAN_MOTION_DOT":"-0.00719777","PERIAPSIS":"349.599","SEMIMAJOR_AXIS":"6728.582","TLE_LINE2":"2 52105  53.2178 309.1497 0001259 116.8702 175.1887 15.72959270  3700","INCLINATION":"53.2178","COUNTRY_CODE":"US","RA_OF_ASC_NODE":"309.1497","PERIOD":"91.547","APOAPSIS":"351.294","DECAY_DATE":null,"CENTER_NAME":"EARTH","SITE":"AFETR","MEAN_MOTION_DDOT":"0.0000000000000","REV_AT_EPOCH":"370","OBJECT_NAME":"STARLINK-3706","NORAD_CAT_ID":"52105","CLASSIFICATION_TYPE":"U","MEAN_MOTION":"15.72959270","ARG_OF_PERICENTER":"116.8702","OBJECT_TYPE":"PAYLOAD","REF_FRAME":"TEME","LAUNCH_DATE":"2022-03-19","ELEMENT_SET_NO":"999","MEAN_ELEMENT_THEORY":"SGP4","MEAN_ANOMALY":"175.1887","EPOCH":"2022-04-27T14:00:01.999872","OBJECT_ID":"2022-029T","TIME_SYSTEM":"UTC"},{"TLE_LINE1":"1 52106U 22029U   22117.83334491 -.00711911  00000-0 -13570-1 0  9996","EPHEMERIS_TYPE":"0","GP_ID":"202164048","RCS_SIZE":"LARGE","ECCENTRICITY":"0.00011580","BSTAR":"-0.01357000000000","FILE":"3418620","MEAN_MOTION_DOT":"-0.00711911","PERIAPSIS":"416.507","SEMIMAJOR_AXIS":"6795.429","TLE_LINE2":"2 52106  53.2177 310.8538 0001158  92.5727 215.3770 15.49806300  7442","INCLINATION":"53.2177","COUNTRY_CODE":"US","RA_OF_ASC_NODE":"310.8538","PERIOD":"92.915","APOAPSIS":"418.081","CENTER_NAME":"EARTH","DECAY_DATE":null,"SITE":"AFETR","MEAN_MOTION_DDOT":"0.0000000000000","REV_AT_EPOCH":"744","OBJECT_NAME":"STARLINK-3670","NORAD_CAT_ID":"52106","MEAN_MOTION":"15.49806300","CLASSIFICATION_TYPE":"U","ARG_OF_PERICENTER":"92.5727","REF_FRAME":"TEME","OBJECT_TYPE":"PAYLOAD","MEAN_ELEMENT_THEORY":"SGP4","LAUNCH_DATE":"2022-03-19","ELEMENT_SET_NO":"999","MEAN_ANOMALY":"215.3770","EPOCH":"2022-04-27T20:00:01.000224","OBJECT_ID":"2022-029U","TIME_SYSTEM":"UTC"},{"TLE_LINE2":"2 52107  53.2176 307.9123 0001201  98.1500 171.3049 15.72585535  7483","INCLINATION":"53.2176","COUNTRY_CODE":"US","RA_OF_ASC_NODE":"307.9123","EPHEMERIS_TYPE":"0","TLE_LINE1":"1 52107U 22029V   22117.83334491 -.00719734  00000-0 -57274-2 0  9998","GP_ID":"202164049","BSTAR":"-0.00572740000000","RCS_SIZE":"LARGE","ECCENTRICITY":"0.00012010","MEAN_MOTION_DOT":"-0.00719734","FILE":"3418620","PERIAPSIS":"350.704","SEMIMAJOR_AXIS":"6729.648","CLASSIFICATION_TYPE":"U","MEAN_MOTION":"15.72585535","ARG_OF_PERICENTER":"98.1500","REF_FRAME":"TEME","OBJECT_TYPE":"PAYLOAD","LAUNCH_DATE":"2022-03-19","ELEMENT_SET_NO":"999","MEAN_ELEMENT_THEORY":"SGP4","MEAN_ANOMALY":"171.3049","EPOCH":"2022-04-27T20:00:01.000224","OBJECT_ID":"2022-029V","TIME_SYSTEM":"UTC","PERIOD":"91.569","CENTER_NAME":"EARTH","DECAY_DATE":null,"APOAPSIS":"352.321","SITE":"AFETR","REV_AT_EPOCH":"748","MEAN_MOTION_DDOT":"0.0000000000000","OBJECT_NAME":"STARLINK-3658","NORAD_CAT_ID":"52107"},{"EPOCH":"2022-04-27T14:00:01.999872","OBJECT_ID":"2022-029W","TIME_SYSTEM":"UTC","MEAN_MOTION":"15.72954523","CLASSIFICATION_TYPE":"U","ARG_OF_PERICENTER":"118.3136","REF_FRAME":"TEME","OBJECT_TYPE":"PAYLOAD","ELEMENT_SET_NO":"999","LAUNCH_DATE":"2022-03-19","MEAN_ANOMALY":"173.1697","MEAN_ELEMENT_THEORY":"SGP4","OBJECT_NAME":"STARLINK-3698","NORAD_CAT_ID":"52108","PERIOD":"91.547","APOAPSIS":"351.307","CENTER_NAME":"EARTH","DECAY_DATE":null,"SITE":"AFETR","MEAN_MOTION_DDOT":"0.0000000000000","REV_AT_EPOCH":"370","INCLINATION":"53.2177","COUNTRY_CODE":"US","RA_OF_ASC_NODE":"309.1508","TLE_LINE2":"2 52108  53.2177 309.1508 0001259 118.3136 173.1697 15.72954523  3706","FILE":"3418497","MEAN_MOTION_DOT":"-0.00719771","PERIAPSIS":"349.613","SEMIMAJOR_AXIS":"6728.595","TLE_LINE1":"1 52108U 22029W   22117.58335648 -.00719771  00000-0 -56375-2 0  9998","EPHEMERIS_TYPE":"0","GP_ID":"202161138","ECCENTRICITY":"0.00012590","RCS_SIZE":"LARGE","BSTAR":"-0.00563750000000"},{"SEMIMAJOR_AXIS":"6728.567","MEAN_MOTION_DOT":"-0.00720273","FILE":"3418497","PERIAPSIS":"349.588","GP_ID":"202161384","BSTAR":"-0.00563940000000","RCS_SIZE":"LARGE","ECCENTRICITY":"0.00012540","TLE_LINE1":"1 52110U 22029Y   22117.58335648 -.00720273  00000-0 -56394-2 0  9991","EPHEMERIS_TYPE":"0","COUNTRY_CODE":"US","RA_OF_ASC_NODE":"309.1489","INCLINATION":"53.2178","TLE_LINE2":"2 52110  53.2178 309.1489 0001254 119.4705 173.1637 15.72964344  3703","NORAD_CAT_ID":"52110","OBJECT_NAME":"STARLINK-3687","SITE":"AFETR","MEAN_MOTION_DDOT":"0.0000000000000","REV_AT_EPOCH":"370","PERIOD":"91.547","DECAY_DATE":null,"CENTER_NAME":"EARTH","APOAPSIS":"351.276","OBJECT_ID":"2022-029Y","TIME_SYSTEM":"UTC","EPOCH":"2022-04-27T14:00:01.999872","REF_FRAME":"TEME","OBJECT_TYPE":"PAYLOAD","LAUNCH_DATE":"2022-03-19","ELEMENT_SET_NO":"999","MEAN_ELEMENT_THEORY":"SGP4","MEAN_ANOMALY":"173.1637","CLASSIFICATION_TYPE":"U","MEAN_MOTION":"15.72964344","ARG_OF_PERICENTER":"119.4705"},{"TLE_LINE2":"2 52111  53.2176 307.9097 0001184  99.0150 172.7458 15.72596189  7485","INCLINATION":"53.2176","COUNTRY_CODE":"US","RA_OF_ASC_NODE":"307.9097","EPHEMERIS_TYPE":"0","TLE_LINE1":"1 52111U 22029Z   22117.83334491 -.00719837  00000-0 -57257-2 0  9998","GP_ID":"202164056","ECCENTRICITY":"0.00011840","RCS_SIZE":"LARGE","BSTAR":"-0.00572570000000","FILE":"3418621","MEAN_MOTION_DOT":"-0.00719837","PERIAPSIS":"350.685","SEMIMAJOR_AXIS":"6729.617","MEAN_MOTION":"15.72596189","CLASSIFICATION_TYPE":"U","ARG_OF_PERICENTER":"99.0150","REF_FRAME":"TEME","OBJECT_TYPE":"PAYLOAD","ELEMENT_SET_NO":"999","LAUNCH_DATE":"2022-03-19","MEAN_ANOMALY":"172.7458","MEAN_ELEMENT_THEORY":"SGP4","EPOCH":"2022-04-27T20:00:01.000224","OBJECT_ID":"2022-029Z","TIME_SYSTEM":"UTC","PERIOD":"91.568","APOAPSIS":"352.279","CENTER_NAME":"EARTH","DECAY_DATE":null,"SITE":"AFETR","MEAN_MOTION_DDOT":"0.0000000000000","REV_AT_EPOCH":"748","OBJECT_NAME":"STARLINK-3708","NORAD_CAT_ID":"52111"},{"MEAN_MOTION":"15.72590374","CLASSIFICATION_TYPE":"U","ARG_OF_PERICENTER":"111.9768","REF_FRAME":"TEME","OBJECT_TYPE":"PAYLOAD","MEAN_ANOMALY":"158.0577","LAUNCH_DATE":"2022-03-19","ELEMENT_SET_NO":"999","MEAN_ELEMENT_THEORY":"SGP4","EPOCH":"2022-04-27T20:00:01.000224","OBJECT_ID":"2022-029AA","TIME_SYSTEM":"UTC","PERIOD":"91.569","DECAY_DATE":null,"CENTER_NAME":"EARTH","APOAPSIS":"352.342","SITE":"AFETR","MEAN_MOTION_DDOT":"0.0000000000000","REV_AT_EPOCH":"748","OBJECT_NAME":"STARLINK-3734","NORAD_CAT_ID":"52112","TLE_LINE2":"2 52112  53.2176 307.9121 0001253 111.9768 158.0577 15.72590374  7489","INCLINATION":"53.2176","COUNTRY_CODE":"US","RA_OF_ASC_NODE":"307.9121","EPHEMERIS_TYPE":"0","TLE_LINE1":"1 52112U 22029AA  22117.83334491 -.00719872  00000-0 -57273-2 0  9996","GP_ID":"202164057","BSTAR":"-0.00572730000000","RCS_SIZE":"LARGE","ECCENTRICITY":"0.00012530","MEAN_MOTION_DOT":"-0.00719872","FILE":"3418621","PERIAPSIS":"350.656","SEMIMAJOR_AXIS":"6729.634"},{"TLE_LINE2":"2 52113  53.2176 307.9087 0001177  96.2470 176.6726 15.72605788  7489","COUNTRY_CODE":"US","RA_OF_ASC_NODE":"307.9087","INCLINATION":"53.2176","GP_ID":"202164564","RCS_SIZE":"LARGE","ECCENTRICITY":"0.00011770","BSTAR":"-0.00572300000000","TLE_LINE1":"1 52113U 22029AB  22117.83334491 -.00719796  00000-0 -57230-2 0  9995","EPHEMERIS_TYPE":"0","SEMIMAJOR_AXIS":"6729.590","FILE":"3418621","MEAN_MOTION_DOT":"-0.00719796","PERIAPSIS":"350.663","OBJECT_TYPE":"PAYLOAD","REF_FRAME":"TEME","ELEMENT_SET_NO":"999","LAUNCH_DATE":"2022-03-19","MEAN_ELEMENT_THEORY":"SGP4","MEAN_ANOMALY":"176.6726","MEAN_MOTION":"15.72605788","CLASSIFICATION_TYPE":"U","ARG_OF_PERICENTER":"96.2470","OBJECT_ID":"2022-029AB","TIME_SYSTEM":"UTC","EPOCH":"2022-04-27T20:00:01.000224","SITE":"AFETR","MEAN_MOTION_DDOT":"0.0000000000000","REV_AT_EPOCH":"748","PERIOD":"91.568","APOAPSIS":"352.247","DECAY_DATE":null,"CENTER_NAME":"EARTH","NORAD_CAT_ID":"52113","OBJECT_NAME":"STARLINK-3736"},{"INCLINATION":"53.2178","RA_OF_ASC_NODE":"309.1455","COUNTRY_CODE":"US","TLE_LINE2":"2 52114  53.2178 309.1455 0001238 117.5398 177.3914 15.72974941  3707","PERIAPSIS":"349.569","MEAN_MOTION_DOT":"-0.00720254","FILE":"3418497","SEMIMAJOR_AXIS":"6728.537","TLE_LINE1":"1 52114U 22029AC  22117.58335648 -.00720254  00000-0 -56367-2 0  9994","EPHEMERIS_TYPE":"0","BSTAR":"-0.00563670000000","ECCENTRICITY":"0.00012380","RCS_SIZE":"LARGE","GP_ID":"202161055","EPOCH":"2022-04-27T14:00:01.999872","TIME_SYSTEM":"UTC","OBJECT_ID":"2022-029AC","ARG_OF_PERICENTER":"117.5398","CLASSIFICATION_TYPE":"U","MEAN_MOTION":"15.72974941","LAUNCH_DATE":"2022-03-19","ELEMENT_SET_NO":"999","MEAN_ELEMENT_THEORY":"SGP4","MEAN_ANOMALY":"177.3914","REF_FRAME":"TEME","OBJECT_TYPE":"PAYLOAD","OBJECT_NAME":"STARLINK-3737","NORAD_CAT_ID":"52114","CENTER_NAME":"EARTH","DECAY_DATE":null,"APOAPSIS":"351.235","PERIOD":"91.546","REV_AT_EPOCH":"370","MEAN_MOTION_DDOT":"0.0000000000000","SITE":"AFETR"},{"SEMIMAJOR_AXIS":"6729.562","MEAN_MOTION_DOT":"-0.00719828","FILE":"3418621","PERIAPSIS":"350.625","GP_ID":"202164560","BSTAR":"-0.00572090000000","RCS_SIZE":"LARGE","ECCENTRICITY":"0.00011920","EPHEMERIS_TYPE":"0","TLE_LINE1":"1 52115U 22029AD  22117.83334491 -.00719828  00000-0 -57209-2 0  9999","COUNTRY_CODE":"US","RA_OF_ASC_NODE":"307.9076","INCLINATION":"53.2176","TLE_LINE2":"2 52115  53.2176 307.9076 0001192 102.0906 171.9877 15.72615376  7485","NORAD_CAT_ID":"52115","OBJECT_NAME":"STARLINK-3685","SITE":"AFETR","MEAN_MOTION_DDOT":"0.0000000000000","REV_AT_EPOCH":"748","PERIOD":"91.567","CENTER_NAME":"EARTH","DECAY_DATE":null,"APOAPSIS":"352.230","OBJECT_ID":"2022-029AD","TIME_SYSTEM":"UTC","EPOCH":"2022-04-27T20:00:01.000224","OBJECT_TYPE":"PAYLOAD","REF_FRAME":"TEME","ELEMENT_SET_NO":"999","LAUNCH_DATE":"2022-03-19","MEAN_ANOMALY":"171.9877","MEAN_ELEMENT_THEORY":"SGP4","MEAN_MOTION":"15.72615376","CLASSIFICATION_TYPE":"U","ARG_OF_PERICENTER":"102.0906"}];
